[{"OBJECT_NAME":"UHETSAT","OBJECT_ID":"2023-185E","EPOCH":"2026-03-09T22:39:26.455680","MEAN_MOTION":15.29797662,"ECCENTRICITY":0.00118435,"INCLINATION":97.3584,"RA_OF_ASC_NODE":137.3576,"ARG_OF_PERICENTER":307.7346,"MEAN_ANOMALY":52.2821,"EPHEMERIS_TYPE":0,"CLASSIFICATION_TYPE":"U","NORAD_CAT_ID":58466,"ELEMENT_SET_NO":999,"REV_AT_EPOCH":12611,"BSTAR":0.00030513019,"MEAN_MOTION_DOT":8.749e-5,"MEAN_MOTION_DDOT":0},{"OBJECT_NAME":"STARLINK-32861","OBJECT_ID":"2025-022S","EPOCH":"2026-03-09T11:47:25.342656","MEAN_MOTION":15.30206511,"ECCENTRICITY":0.00012167,"INCLINATION":53.1604,"RA_OF_ASC_NODE":130.2592,"ARG_OF_PERICENTER":86.9446,"MEAN_ANOMALY":273.1694,"EPHEMERIS_TYPE":0,"CLASSIFICATION_TYPE":"U","NORAD_CAT_ID":62870,"ELEMENT_SET_NO":999,"REV_AT_EPOCH":6187,"BSTAR":0.00087061268,"MEAN_MOTION_DOT":0.0002552,"MEAN_MOTION_DDOT":0}]
